{"type": "FeatureCollection", "features": [ {"type": "Feature", "properties": {"norad_id": 34001, "name": "COSMOS 2251 DEB", "group": "cosmos-2251-debris", "lat": 37.21715154004835, "lon": -77.33795554963953, "alt_km": 755.5734375253924, "timestamp": "2025-12-18T23:35:49.456435+00:00", "meta": {"OBJECT_NAME": "COSMOS 2251 DEB", "OBJECT_ID": "1993-036GL", "EPOCH": "2025-12-18T12:32:46.752576", "MEAN_MOTION": 14.37105456, "ECCENTRICITY": 0.00202174, "INCLINATION": 74.0388, "RA_OF_ASC_NODE": 270.9537, "ARG_OF_PERICENTER": 350.8667, "MEAN_ANOMALY": 186.8222, "EPHEMERIS_TYPE": 0, "CLASSIFICATION_TYPE": "U", "NORAD_CAT_ID": 34001, "ELEMENT_SET_NO": 999, "REV_AT_EPOCH": 88229, "BSTAR": 0.00015432531, "MEAN_MOTION_DOT": 4.33e-06, "MEAN_MOTION_DDOT": 0}, "tle": {"line1": "1 34001U 93036GL  25352.52276334  .00000433  00000+0  15433-3 0  9996", "line2": "2 34001  74.0388 270.9537 0020217 350.8667 186.8222 14.37105456882294"}}, "geometry": {"type": "Point", "coordinates": [-77.33795554963953, 37.21715154004835]}}, {"type": "Feature", "properties": {"norad_id": 34003, "name": "COSMOS 2251 DEB", "group": "cosmos-2251-debris", "lat": 0.9431805085748134, "lon": 94.36608829675518, "alt_km": 1130.9359812338434, "timestamp": "2025-12-18T23:35:49.456445+00:00", "meta": {"OBJECT_NAME": "COSMOS 2251 DEB", "OBJECT_ID": "1993-036GN", "EPOCH": "2025-12-18T05:24:13.344480", "MEAN_MOTION": 13.84182116, "ECCENTRICITY": 0.02748012, "INCLINATION": 74.0782, "RA_OF_ASC_NODE": 275.9108, "ARG_OF_PERICENTER": 26.6559, "MEAN_ANOMALY": 334.8394, "EPHEMERIS_TYPE": 0, "CLASSIFICATION_TYPE": "U", "NORAD_CAT_ID": 34003, "ELEMENT_SET_NO": 999, "REV_AT_EPOCH": 84501, "BSTAR": 0.0016318566, "MEAN_MOTION_DOT": 2.416e-05, "MEAN_MOTION_DDOT": 0}, "tle": {"line1": "1 34003U 93036GN  25352.22515445  .00002416  00000+0  16319-2 0  9990", "line2": "2 34003  74.0782 275.9108 0274801  26.6559 334.8394 13.84182116845014"}}, "geometry": {"type": "Point", "coordinates": [94.36608829675518, 0.9431805085748134]}}, {"type": "Feature", "properties": {"norad_id": 34004, "name": "COSMOS 2251 DEB", "group": "cosmos-2251-debris", "lat": -12.180993630993937, "lon": 124.94487490368437, "alt_km": 744.6546253455945, "timestamp": "2025-12-18T23:35:49.456455+00:00", "meta": {"OBJECT_NAME": "COSMOS 2251 DEB", "OBJECT_ID": "1993-036GP", "EPOCH": "2025-12-18T06:08:21.723936", "MEAN_MOTION": 14.49060183, "ECCENTRICITY": 0.00334298, "INCLINATION": 74.0353, "RA_OF_ASC_NODE": 302.7655, "ARG_OF_PERICENTER": 314.2883, "MEAN_ANOMALY": 45.5535, "EPHEMERIS_TYPE": 0, "CLASSIFICATION_TYPE": "U", "NORAD_CAT_ID": 34004, "ELEMENT_SET_NO": 999, "REV_AT_EPOCH": 88110, "BSTAR": 0.0010277941, "MEAN_MOTION_DOT": 3.904e-05, "MEAN_MOTION_DDOT": 0}, "tle": {"line1": "1 34004U 93036GP  25352.25580699  .00003904  00000+0  10278-2 0  9998", "line2": "2 34004  74.0353 302.7655 0033429 314.2883  45.5535 14.49060183881104"}}, "geometry": {"type": "Point", "coordinates": [124.94487490368437, -12.180993630993937]}}, {"type": "Feature", "properties": {"norad_id": 34005, "name": "COSMOS 2251 DEB", "group": "cosmos-2251-debris", "lat": -74.03200551075096, "lon": 113.03479468302437, "alt_km": 754.569480385283, "timestamp": "2025-12-18T23:35:49.456466+00:00", "meta": {"OBJECT_NAME": "COSMOS 2251 DEB", "OBJECT_ID": "1993-036GQ", "EPOCH": "2025-12-18T09:36:06.060960", "MEAN_MOTION": 14.4030839, "ECCENTRICITY": 0.00210369, "INCLINATION": 74.0438, "RA_OF_ASC_NODE": 203.1895, "ARG_OF_PERICENTER": 320.4445, "MEAN_ANOMALY": 167.5615, "EPHEMERIS_TYPE": 0, "CLASSIFICATION_TYPE": "U", "NORAD_CAT_ID": 34005, "ELEMENT_SET_NO": 999, "REV_AT_EPOCH": 88460, "BSTAR": 9.1663402e-05, "MEAN_MOTION_DOT": 2.65e-06, "MEAN_MOTION_DDOT": 0}, "tle": {"line1": "1 34005U 93036GQ  25352.40007015  .00000265  00000+0  91663-4 0  9998", "line2": "2 34005  74.0438 203.1895 0021036 320.4445 167.5615 14.40308390884601"}}, "geometry": {"type": "Point", "coordinates": [113.03479468302437, -74.03200551075096]}}, {"type": "Feature", "properties": {"norad_id": 34006, "name": "COSMOS 2251 DEB", "group": "cosmos-2251-debris", "lat": -35.30713970473971, "lon": 119.02425684393192, "alt_km": 590.0485412829839, "timestamp": "2025-12-18T23:35:49.456476+00:00", "meta": {"OBJECT_NAME": "COSMOS 2251 DEB", "OBJECT_ID": "1993-036GR", "EPOCH": "2025-12-18T03:40:23.640096", "MEAN_MOTION": 14.95111084, "ECCENTRICITY": 0.00113796, "INCLINATION": 74.0524, "RA_OF_ASC_NODE": 132.3805, "ARG_OF_PERICENTER": 71.3364, "MEAN_ANOMALY": 105.5146, "EPHEMERIS_TYPE": 0, "CLASSIFICATION_TYPE": "U", "NORAD_CAT_ID": 34006, "ELEMENT_SET_NO": 999, "REV_AT_EPOCH": 88749, "BSTAR": 0.0025744949, "MEAN_MOTION_DOT": 0.00028351, "MEAN_MOTION_DDOT": 0}, "tle": {"line1": "1 34006U 93036GR  25352.15305139  .00028351  00000+0  25745-2 0  9991", "line2": "2 34006  74.0524 132.3805 0011379  71.3364 105.5146 14.95111084887496"}}, "geometry": {"type": "Point", "coordinates": [119.02425684393192, -35.30713970473971]}}, {"type": "Feature", "properties": {"norad_id": 34007, "name": "COSMOS 2251 DEB", "group": "cosmos-2251-debris", "lat": -53.53922415547012, "lon": -47.943062868515945, "alt_km": 714.3498070978967, "timestamp": "2025-12-18T23:35:49.456487+00:00", "meta": {"OBJECT_NAME": "COSMOS 2251 DEB", "OBJECT_ID": "1993-036GS", "EPOCH": "2025-12-18T09:06:19.974240", "MEAN_MOTION": 14.64824644, "ECCENTRICITY": 0.00442321, "INCLINATION": 74.0187, "RA_OF_ASC_NODE": 336.0395, "ARG_OF_PERICENTER": 109.1353, "MEAN_ANOMALY": 251.4611, "EPHEMERIS_TYPE": 0, "CLASSIFICATION_TYPE": "U", "NORAD_CAT_ID": 34007, "ELEMENT_SET_NO": 999, "REV_AT_EPOCH": 89162, "BSTAR": 0.00054099577, "MEAN_MOTION_DOT": 2.899e-05, "MEAN_MOTION_DDOT": 0}, "tle": {"line1": "1 34007U 93036GS  25352.37939785  .00002899  00000+0  54100-3 0  9993", "line2": "2 34007  74.0187 336.0395 0044232 109.1353 251.4611 14.64824644891628"}}, "geometry": {"type": "Point", "coordinates": [-47.943062868515945, -53.53922415547012]}}, {"type": "Feature", "properties": {"norad_id": 34008, "name": "COSMOS 2251 DEB", "group": "cosmos-2251-debris", "lat": 16.01062475693201, "lon": -36.180013304688494, "alt_km": 773.6580195774814, "timestamp": "2025-12-18T23:35:49.456497+00:00", "meta": {"OBJECT_NAME": "COSMOS 2251 DEB", "OBJECT_ID": "1993-036GT", "EPOCH": "2025-12-18T09:11:56.944608", "MEAN_MOTION": 14.33150125, "ECCENTRICITY": 0.00245106, "INCLINATION": 74.0344, "RA_OF_ASC_NODE": 320.2039, "ARG_OF_PERICENTER": 314.5446, "MEAN_ANOMALY": 208.0675, "EPHEMERIS_TYPE": 0, "CLASSIFICATION_TYPE": "U", "NORAD_CAT_ID": 34008, "ELEMENT_SET_NO": 999, "REV_AT_EPOCH": 88045, "BSTAR": 9.6252581e-05, "MEAN_MOTION_DOT": 2.39e-06, "MEAN_MOTION_DDOT": 0}, "tle": {"line1": "1 34008U 93036GT  25352.38329797  .00000239  00000+0  96253-4 0  9993", "line2": "2 34008  74.0344 320.2039 0024510 314.5446 208.0675 14.33150125880455"}}, "geometry": {"type": "Point", "coordinates": [-36.180013304688494, 16.01062475693201]}}, {"type": "Feature", "properties": {"norad_id": 34009, "name": "COSMOS 2251 DEB", "group": "cosmos-2251-debris", "lat": 51.271988986957375, "lon": -13.562616086441782, "alt_km": 757.9970601637006, "timestamp": "2025-12-18T23:35:49.456508+00:00", "meta": {"OBJECT_NAME": "COSMOS 2251 DEB", "OBJECT_ID": "1993-036GU", "EPOCH": "2025-12-18T08:58:01.575840", "MEAN_MOTION": 14.33226706, "ECCENTRICITY": 0.00267237, "INCLINATION": 74.0372, "RA_OF_ASC_NODE": 326.6402, "ARG_OF_PERICENTER": 34.5609, "MEAN_ANOMALY": 115.6819, "EPHEMERIS_TYPE": 0, "CLASSIFICATION_TYPE": "U", "NORAD_CAT_ID": 34009, "ELEMENT_SET_NO": 999, "REV_AT_EPOCH": 88026, "BSTAR": 0.00012197556, "MEAN_MOTION_DOT": 3.11e-06, "MEAN_MOTION_DDOT": 0}, "tle": {"line1": "1 34009U 93036GU  25352.37362935  .00000311  00000+0  12198-3 0  9990", "line2": "2 34009  74.0372 326.6402 0026723  34.5609 115.6819 14.33226706880260"}}, "geometry": {"type": "Point", "coordinates": [-13.562616086441782, 51.271988986957375]}}, {"type": "Feature", "properties": {"norad_id": 34010, "name": "COSMOS 2251 DEB", "group": "cosmos-2251-debris", "lat": 54.28906198761778, "lon": -66.26603848860859, "alt_km": 498.0934327190962, "timestamp": "2025-12-18T23:35:49.456518+00:00", "meta": {"OBJECT_NAME": "COSMOS 2251 DEB", "OBJECT_ID": "1993-036GV", "EPOCH": "2025-12-18T12:17:05.371008", "MEAN_MOTION": 15.1964801, "ECCENTRICITY": 0.00045445, "INCLINATION": 73.9996, "RA_OF_ASC_NODE": 271.1965, "ARG_OF_PERICENTER": 61.7712, "MEAN_ANOMALY": 298.3943, "EPHEMERIS_TYPE": 0, "CLASSIFICATION_TYPE": "U", "NORAD_CAT_ID": 34010, "ELEMENT_SET_NO": 999, "REV_AT_EPOCH": 89373, "BSTAR": 0.0035306411, "MEAN_MOTION_DOT": 0.00076081, "MEAN_MOTION_DDOT": 0}, "tle": {"line1": "1 34010U 93036GV  25352.51186772  .00076081  00000+0  35306-2 0  9993", "line2": "2 34010  73.9996 271.1965 0004544  61.7712 298.3943 15.19648010893738"}}, "geometry": {"type": "Point", "coordinates": [-66.26603848860859, 54.28906198761778]}}, {"type": "Feature", "properties": {"norad_id": 34011, "name": "COSMOS 2251 DEB", "group": "cosmos-2251-debris", "lat": -65.77776862685343, "lon": 178.14649132044786, "alt_km": 781.3342006875182, "timestamp": "2025-12-18T23:35:49.456529+00:00", "meta": {"OBJECT_NAME": "COSMOS 2251 DEB", "OBJECT_ID": "1993-036GW", "EPOCH": "2025-12-17T23:07:14.633184", "MEAN_MOTION": 14.4179436, "ECCENTRICITY": 0.00359281, "INCLINATION": 74.0143, "RA_OF_ASC_NODE": 320.4556, "ARG_OF_PERICENTER": 42.4691, "MEAN_ANOMALY": 317.9234, "EPHEMERIS_TYPE": 0, "CLASSIFICATION_TYPE": "U", "NORAD_CAT_ID": 34011, "ELEMENT_SET_NO": 999, "REV_AT_EPOCH": 87991, "BSTAR": 0.00059386852, "MEAN_MOTION_DOT": 1.929e-05, "MEAN_MOTION_DDOT": 0}, "tle": {"line1": "1 34011U 93036GW  25351.96336381  .00001929  00000+0  59387-3 0  9990", "line2": "2 34011  74.0143 320.4556 0035928  42.4691 317.9234 14.41794360879910"}}, "geometry": {"type": "Point", "coordinates": [178.14649132044786, -65.77776862685343]}}]}